SL-16 R/B               
1 22566U 93016B   26063.90321256  .00000296  00000+0  17642-3 0  9994
2 22566  71.0061 225.2340 0011455 320.9227  39.1067 14.15306152701492
COSMOS 2242             
1 22626U 93024A   26064.08926311  .00002128  00000+0  18458-3 0  9995
2 22626  82.5152 271.1182 0015491 325.4082  34.6130 14.96525659779708
SL-16 R/B               
1 22803U 93059B   26064.10086748 -.00000062  00000+0 -69824-5 0  9996
2 22803  70.9922  20.8021 0018753 223.0945 136.8712 14.17232241678880
ARIANE 40 R/B           
1 22830U 93061H   26064.15958839  .00000268  00000+0  11389-3 0  9990
2 22830  98.4924 133.1364 0009623 300.0937  59.9292 14.32858189693458
COSMOS 2278             
1 23087U 94023A   26063.50561038  .00000308  00000+0  18561-3 0  9997
2 23087  71.0543 185.9417 0007692  23.7678 336.3799 14.14376329644075
SL-16 R/B               
1 23088U 94023B   26064.11993814 -.00000153  00000+0 -54391-4 0  9999
2 23088  70.9987  80.4849 0005664 290.1299  69.9214 14.15013224645446
SL-16 R/B               
1 23343U 94074B   26064.05276084  .00000630  00000+0  91116-4 0  9999
2 23343  97.7114  95.0582 0005466 228.2670 160.2790 14.79401664686561
SL-16 R/B               
1 23405U 94077B   26064.10333723 -.00000228  00000+0 -91823-4 0  9991
2 23405  70.9852   2.1366 0003355 218.7931 141.2951 14.15561763615589
ARIANE 40+ R/B          
1 23561U 95021B   26064.15292925  .00000380  00000+0  13507-3 0  9996
2 23561  98.4506 135.6969 0007450 148.6965 232.6799 14.39768547618596
SL-16 R/B               
1 23705U 95058B   26064.03944358  .00000070  00000+0  60050-4 0  9999
2 23705  71.0212 190.0170 0010986 133.9448 226.2583 14.15492939567199
SL-16 R/B               
1 24298U 96051B   26063.50030014  .00000105  00000+0  83516-4 0  9998
2 24298  70.7597 186.2217 0015547 155.7703 204.4151 14.12414119520911
ORBVIEW 2 (SEASTAR)     
1 24883U 97037A   26064.16606063  .00000431  00000+0  16600-3 0  9990
2 24883  98.8557 228.3581 0003159  80.9632 279.1910 14.35490983507821
